[
  {
    "OBJECT_NAME": "STARLINK-33735",
    "OBJECT_ID": "25070Q",
    "EPOCH": "2025-11-11T02:47:18.908448",
    "MEAN_MOTION": 15.27578837,
    "ECCENTRICITY": 0.0002807,
    "INCLINATION": 43.0018,
    "RA_OF_ASC_NODE": 209.3064,
    "ARG_OF_PERICENTER": 249.3808,
    "MEAN_ANOMALY": 110.6742,
    "EPHEMERIS_TYPE": 0,
    "CLASSIFICATION_TYPE": "U",
    "NORAD_CAT_ID": 63474,
    "ELEMENT_SET_NO": 999,
    "REV_AT_EPOCH": 3484,
    "BSTAR": 0.0011707,
    "MEAN_MOTION_DOT": 0.00032093,
    "MEAN_MOTION_DDOT": 0.0,
    "TLE_LINE1": "1 63474U 25070Q   25315.11619107  .00032093  00000+0  11707-2 0  9994",
    "TLE_LINE2": "2 63474  43.0018 209.3064 0002807 249.3808 110.6742 15.27578837 34840",
    "COMMENT": "Grouped by shell and plane from TLE"
  },
  {
    "OBJECT_NAME": "STARLINK-33731",
    "OBJECT_ID": "25070R",
    "EPOCH": "2025-11-11T02:10:30.749952",
    "MEAN_MOTION": 15.2765587,
    "ECCENTRICITY": 0.0001512,
    "INCLINATION": 43.0002,
    "RA_OF_ASC_NODE": 209.9851,
    "ARG_OF_PERICENTER": 263.0167,
    "MEAN_ANOMALY": 97.0513,
    "EPHEMERIS_TYPE": 0,
    "CLASSIFICATION_TYPE": "U",
    "NORAD_CAT_ID": 63475,
    "ELEMENT_SET_NO": 999,
    "REV_AT_EPOCH": 3483,
    "BSTAR": 0.0018335,
    "MEAN_MOTION_DOT": 0.00050656,
    "MEAN_MOTION_DDOT": 0.0,
    "TLE_LINE1": "1 63475U 25070R   25315.09063368  .00050656  00000+0  18335-2 0  9993",
    "TLE_LINE2": "2 63475  43.0002 209.9851 0001512 263.0167  97.0513 15.27655870 34833",
    "COMMENT": "Grouped by shell and plane from TLE"
  },
  {
    "OBJECT_NAME": "STARLINK-33718",
    "OBJECT_ID": "25070S",
    "EPOCH": "2025-11-11T02:28:48.138816",
    "MEAN_MOTION": 15.2761633,
    "ECCENTRICITY": 0.0001269,
    "INCLINATION": 43.0007,
    "RA_OF_ASC_NODE": 209.2144,
    "ARG_OF_PERICENTER": 271.645,
    "MEAN_ANOMALY": 88.4256,
    "EPHEMERIS_TYPE": 0,
    "CLASSIFICATION_TYPE": "U",
    "NORAD_CAT_ID": 63476,
    "ELEMENT_SET_NO": 999,
    "REV_AT_EPOCH": 3484,
    "BSTAR": 0.0009375900000000001,
    "MEAN_MOTION_DOT": 0.00025657,
    "MEAN_MOTION_DDOT": 0.0,
    "TLE_LINE1": "1 63476U 25070S   25315.10333494  .00025657  00000+0  93759-3 0  9993",
    "TLE_LINE2": "2 63476  43.0007 209.2144 0001269 271.6450  88.4256 15.27616330 34843",
    "COMMENT": "Grouped by shell and plane from TLE"
  },
  {
    "OBJECT_NAME": "STARLINK-33630",
    "OBJECT_ID": "25070T",
    "EPOCH": "2025-11-11T02:49:50.811744",
    "MEAN_MOTION": 15.27622643,
    "ECCENTRICITY": 0.0001106,
    "INCLINATION": 42.9979,
    "RA_OF_ASC_NODE": 205.8407,
    "ARG_OF_PERICENTER": 269.8818,
    "MEAN_ANOMALY": 90.1907,
    "EPHEMERIS_TYPE": 0,
    "CLASSIFICATION_TYPE": "U",
    "NORAD_CAT_ID": 63477,
    "ELEMENT_SET_NO": 999,
    "REV_AT_EPOCH": 3488,
    "BSTAR": 0.001045,
    "MEAN_MOTION_DOT": 0.00028642,
    "MEAN_MOTION_DDOT": 0.0,
    "TLE_LINE1": "1 63477U 25070T   25315.11794921  .00028642  00000+0  10450-2 0  9994",
    "TLE_LINE2": "2 63477  42.9979 205.8407 0001106 269.8818  90.1907 15.27622643 34882",
    "COMMENT": "Grouped by shell and plane from TLE"
  },
  {
    "OBJECT_NAME": "STARLINK-33695",
    "OBJECT_ID": "25070U",
    "EPOCH": "2025-11-11T04:05:29.586912",
    "MEAN_MOTION": 15.27639837,
    "ECCENTRICITY": 0.0001696,
    "INCLINATION": 43.0005,
    "RA_OF_ASC_NODE": 205.3767,
    "ARG_OF_PERICENTER": 277.8436,
    "MEAN_ANOMALY": 82.2224,
    "EPHEMERIS_TYPE": 0,
    "CLASSIFICATION_TYPE": "U",
    "NORAD_CAT_ID": 63478,
    "ELEMENT_SET_NO": 999,
    "REV_AT_EPOCH": 3489,
    "BSTAR": 0.0012547,
    "MEAN_MOTION_DOT": 0.0003449,
    "MEAN_MOTION_DDOT": 0.0,
    "TLE_LINE1": "1 63478U 25070U   25315.17048133  .00034490  00000+0  12547-2 0  9995",
    "TLE_LINE2": "2 63478  43.0005 205.3767 0001696 277.8436  82.2224 15.27639837 34896",
    "COMMENT": "Grouped by shell and plane from TLE"
  },
  {
    "OBJECT_NAME": "STARLINK-33713",
    "OBJECT_ID": "25070V",
    "EPOCH": "2025-11-11T02:36:53.225568",
    "MEAN_MOTION": 15.27627045,
    "ECCENTRICITY": 0.0002145,
    "INCLINATION": 43.0,
    "RA_OF_ASC_NODE": 205.7688,
    "ARG_OF_PERICENTER": 251.2174,
    "MEAN_ANOMALY": 108.8445,
    "EPHEMERIS_TYPE": 0,
    "CLASSIFICATION_TYPE": "U",
    "NORAD_CAT_ID": 63479,
    "ELEMENT_SET_NO": 999,
    "REV_AT_EPOCH": 3488,
    "BSTAR": 0.0011379,
    "MEAN_MOTION_DOT": 0.00031229,
    "MEAN_MOTION_DDOT": 0.0,
    "TLE_LINE1": "1 63479U 25070V   25315.10894937  .00031229  00000+0  11379-2 0  9999",
    "TLE_LINE2": "2 63479  43.0000 205.7688 0002145 251.2174 108.8445 15.27627045 34880",
    "COMMENT": "Grouped by shell and plane from TLE"
  },
  {
    "OBJECT_NAME": "STARLINK-33721",
    "OBJECT_ID": "25070W",
    "EPOCH": "2025-11-11T01:06:26.354304",
    "MEAN_MOTION": 15.27630489,
    "ECCENTRICITY": 0.0001519,
    "INCLINATION": 42.9986,
    "RA_OF_ASC_NODE": 206.1591,
    "ARG_OF_PERICENTER": 270.6715,
    "MEAN_ANOMALY": 89.3962,
    "EPHEMERIS_TYPE": 0,
    "CLASSIFICATION_TYPE": "U",
    "NORAD_CAT_ID": 63480,
    "ELEMENT_SET_NO": 999,
    "REV_AT_EPOCH": 3487,
    "BSTAR": 0.0013965,
    "MEAN_MOTION_DOT": 0.00038427,
    "MEAN_MOTION_DDOT": 0.0,
    "TLE_LINE1": "1 63480U 25070W   25315.04613836  .00038427  00000+0  13965-2 0  9991",
    "TLE_LINE2": "2 63480  42.9986 206.1591 0001519 270.6715  89.3962 15.27630489 34873",
    "COMMENT": "Grouped by shell and plane from TLE"
  },
  {
    "OBJECT_NAME": "STARLINK-33639",
    "OBJECT_ID": "25070X",
    "EPOCH": "2025-11-11T03:08:20.846976",
    "MEAN_MOTION": 15.27624076,
    "ECCENTRICITY": 0.0001031,
    "INCLINATION": 43.0005,
    "RA_OF_ASC_NODE": 205.9326,
    "ARG_OF_PERICENTER": 266.628,
    "MEAN_ANOMALY": 93.4454,
    "EPHEMERIS_TYPE": 0,
    "CLASSIFICATION_TYPE": "U",
    "NORAD_CAT_ID": 63481,
    "ELEMENT_SET_NO": 999,
    "REV_AT_EPOCH": 3488,
    "BSTAR": 0.00088964,
    "MEAN_MOTION_DOT": 0.00024332,
    "MEAN_MOTION_DDOT": 0.0,
    "TLE_LINE1": "1 63481U 25070X   25315.13079684  .00024332  00000+0  88964-3 0  9991",
    "TLE_LINE2": "2 63481  43.0005 205.9326 0001031 266.6280  93.4454 15.27624076 34880",
    "COMMENT": "Grouped by shell and plane from TLE"
  },
  {
    "OBJECT_NAME": "STARLINK-33688",
    "OBJECT_ID": "25070Z",
    "EPOCH": "2025-11-11T01:44:35.925792",
    "MEAN_MOTION": 15.27626816,
    "ECCENTRICITY": 0.0001578,
    "INCLINATION": 42.9991,
    "RA_OF_ASC_NODE": 209.824,
    "ARG_OF_PERICENTER": 270.7882,
    "MEAN_ANOMALY": 89.2788,
    "EPHEMERIS_TYPE": 0,
    "CLASSIFICATION_TYPE": "U",
    "NORAD_CAT_ID": 63483,
    "ELEMENT_SET_NO": 999,
    "REV_AT_EPOCH": 3483,
    "BSTAR": 0.0015514,
    "MEAN_MOTION_DOT": 0.00042738,
    "MEAN_MOTION_DDOT": 0.0,
    "TLE_LINE1": "1 63483U 25070Z   25315.07263803  .00042738  00000+0  15514-2 0  9994",
    "TLE_LINE2": "2 63483  42.9991 209.8240 0001578 270.7882  89.2788 15.27626816 34834",
    "COMMENT": "Grouped by shell and plane from TLE"
  },
  {
    "OBJECT_NAME": "STARLINK-33700",
    "OBJECT_ID": "25070AA",
    "EPOCH": "2025-11-11T02:51:00.146016",
    "MEAN_MOTION": 15.27625815,
    "ECCENTRICITY": 9.4e-05,
    "INCLINATION": 42.998,
    "RA_OF_ASC_NODE": 209.3138,
    "ARG_OF_PERICENTER": 294.5642,
    "MEAN_ANOMALY": 65.5112,
    "EPHEMERIS_TYPE": 0,
    "CLASSIFICATION_TYPE": "U",
    "NORAD_CAT_ID": 63484,
    "ELEMENT_SET_NO": 999,
    "REV_AT_EPOCH": 3484,
    "BSTAR": 0.0010140000000000001,
    "MEAN_MOTION_DOT": 0.00027786,
    "MEAN_MOTION_DDOT": 0.0,
    "TLE_LINE1": "1 63484U 25070AA  25315.11875169  .00027786  00000+0  10140-2 0  9990",
    "TLE_LINE2": "2 63484  42.9980 209.3138 0000940 294.5642  65.5112 15.27625815 34841",
    "COMMENT": "Grouped by shell and plane from TLE"
  },
  {
    "OBJECT_NAME": "STARLINK-33687",
    "OBJECT_ID": "25070AB",
    "EPOCH": "2025-11-11T02:34:20.109216",
    "MEAN_MOTION": 15.27621198,
    "ECCENTRICITY": 0.0001493,
    "INCLINATION": 43.0,
    "RA_OF_ASC_NODE": 209.1885,
    "ARG_OF_PERICENTER": 268.9747,
    "MEAN_ANOMALY": 91.0933,
    "EPHEMERIS_TYPE": 0,
    "CLASSIFICATION_TYPE": "U",
    "NORAD_CAT_ID": 63485,
    "ELEMENT_SET_NO": 999,
    "REV_AT_EPOCH": 3484,
    "BSTAR": 0.00077445,
    "MEAN_MOTION_DOT": 0.00021137,
    "MEAN_MOTION_DDOT": 0.0,
    "TLE_LINE1": "1 63485U 25070AB  25315.10717719  .00021137  00000+0  77445-3 0  9992",
    "TLE_LINE2": "2 63485  43.0000 209.1885 0001493 268.9747  91.0933 15.27621198 34844",
    "COMMENT": "Grouped by shell and plane from TLE"
  },
  {
    "OBJECT_NAME": "STARLINK-33716",
    "OBJECT_ID": "25070AC",
    "EPOCH": "2025-11-11T01:07:35.172768",
    "MEAN_MOTION": 15.27632623,
    "ECCENTRICITY": 0.0001944,
    "INCLINATION": 43.0007,
    "RA_OF_ASC_NODE": 209.6489,
    "ARG_OF_PERICENTER": 275.5742,
    "MEAN_ANOMALY": 84.4888,
    "EPHEMERIS_TYPE": 0,
    "CLASSIFICATION_TYPE": "U",
    "NORAD_CAT_ID": 63486,
    "ELEMENT_SET_NO": 999,
    "REV_AT_EPOCH": 3483,
    "BSTAR": 0.0011007,
    "MEAN_MOTION_DOT": 0.00030199,
    "MEAN_MOTION_DDOT": 0.0,
    "TLE_LINE1": "1 63486U 25070AC  25315.04693487  .00030199  00000+0  11007-2 0  9990",
    "TLE_LINE2": "2 63486  43.0007 209.6489 0001944 275.5742  84.4888 15.27632623 34836",
    "COMMENT": "Grouped by shell and plane from TLE"
  },
  {
    "OBJECT_NAME": "STARLINK-33754",
    "OBJECT_ID": "25070AD",
    "EPOCH": "2025-11-11T03:11:22.572960",
    "MEAN_MOTION": 15.27638198,
    "ECCENTRICITY": 0.000141,
    "INCLINATION": 42.9981,
    "RA_OF_ASC_NODE": 209.4172,
    "ARG_OF_PERICENTER": 270.5496,
    "MEAN_ANOMALY": 89.5194,
    "EPHEMERIS_TYPE": 0,
    "CLASSIFICATION_TYPE": "U",
    "NORAD_CAT_ID": 63487,
    "ELEMENT_SET_NO": 999,
    "REV_AT_EPOCH": 3484,
    "BSTAR": 0.0030008,
    "MEAN_MOTION_DOT": 0.00083401,
    "MEAN_MOTION_DDOT": 0.0,
    "TLE_LINE1": "1 63487U 25070AD  25315.13290015  .00083401  00000+0  30008-2 0  9997",
    "TLE_LINE2": "2 63487  42.9981 209.4172 0001410 270.5496  89.5194 15.27638198 34842",
    "COMMENT": "Grouped by shell and plane from TLE"
  }
]